ONEWEB-0053             
1 45157U 20008AC  26160.64119337  .00000572  00000+0  16011-2 0  9995
2 45157  87.8841  37.7873 0002216  74.7385 285.3987 13.10373933306925
ONEWEB-0054             
1 45158U 20008AD  26160.67602888 -.00000483  00000+0 -14189-2 0  9994
2 45158  87.8848  37.7626 0001870  83.0808 277.0532 13.10370005307042
ONEWEB-0056             
1 45159U 20008AE  26160.72407734  .00000639  00000+0  17929-2 0  9990
2 45159  87.8847  37.7468 0001926  89.8802 270.2546 13.10374161307201
ONEWEB-0057             
1 45160U 20008AF  26160.66455868  .00000107  00000+0  27051-3 0  9994
2 45160  87.8839  37.7712 0002237  74.2466 285.8907 13.10368846307369
ONEWEB-0058             
1 45161U 20008AG  26160.65129128  .00000602  00000+0  16885-2 0  9993
2 45161  87.8838  37.7803 0001582  79.5298 280.6007 13.10370661307433
ONEWEB-0059             
1 45162U 20008AH  26160.64797320  .00000771  00000+0  21731-2 0  9991
2 45162  87.8838  37.7798 0001700  75.2304 284.9011 13.10372642307332
ONEWEB-0062             
1 45163U 20008AJ  26160.74727585 -.00000257  00000+0 -77173-3 0  9992
2 45163  87.8845  37.7469 0001391  88.1040 272.0246 13.10369200307213
ONEWEB-0065             
1 45164U 20008AK  26160.70411984 -.00000029  00000+0 -12025-3 0  9994
2 45164  87.8848  37.7636 0002175  81.7396 278.3978 13.10375432306907
STARLINK-1143           
1 45179U 20012B   26161.00004630  .00219871  28802-4  70898-3 0  9997
2 45179  53.0332 229.7304 0008944 359.2120  23.1180 15.90442972  6024
STARLINK-1202           
1 45183U 20012F   26160.75979679  .00049515  00000+0  14420-2 0  9996
2 45183  53.1577 330.6252 0001611 206.0501 154.0421 15.34941263349062
STARLINK-1216           
1 45185U 20012H   26160.73852272  .00046793  00000+0  13519-2 0  9998
2 45185  53.1574 330.5773 0001785 205.5077 154.5838 15.35216559349007
STARLINK-1225           
1 45187U 20012K   26160.73723497  .00057867  00000+0  16644-2 0  9992
2 45187  53.1598 331.0447 0001728 212.7163 147.3733 15.35261673349047
STARLINK-1230           
1 45189U 20012M   26160.74839925  .00048569  00000+0  14080-2 0  9990
2 45189  53.1575 331.0660 0001565 216.5797 143.5099 15.35093565346273
STARLINK-1234           
1 45190U 20012N   26160.44896371  .00063792  00000+0  42367-3 0  9992
2 45190  53.0364 232.3088 0004547 278.3686  81.6817 15.74869786350288
STARLINK-1269           
1 45197U 20012V   26160.74378250  .00046340  00000+0  13414-2 0  9993
2 45197  53.1569 330.9350 0000850 134.9997 225.1075 15.35161028349027
STARLINK-1154           
1 45198U 20012W   26160.63986659  .00040299  00000+0  42388-3 0  9990
2 45198  53.0417 285.9075 0002121 358.3360   1.7646 15.63924898349598
STARLINK-1199           
1 45201U 20012Z   26160.71485431  .00051919  00000+0  14998-2 0  9992
2 45201  53.1569 315.3361 0001729 274.3098  85.7707 15.35173316349260
STARLINK-1209           
1 45206U 20012AE  26160.53639850  .00049565  00000+0  47826-3 0  9994
2 45206  53.0374 246.6020 0007063 250.8970 109.1281 15.65983062349247
STARLINK-1231           
1 45212U 20012AL  26160.77293873  .00042914  00000+0  15544-2 0  9990
2 45212  53.0373 310.4256 0002686  76.6761 283.4537 15.27987351349278
STARLINK-1271           
1 45217U 20012AR  26160.71209881  .00029984  00000+0  86827-3 0  9990
2 45217  53.1574 315.4692 0001558 291.8483  68.2354 15.35355286349265
STARLINK-1191           
1 45222U 20012AW  26160.62237243  .00052261  00000+0  13181-2 0  9995
2 45222  53.1556 288.8393 0002221 228.8515 131.2298 15.39375122349630
STARLINK-1212           
1 45223U 20012AX  26160.74412086  .00051156  00000+0  46742-3 0  9991
2 45223  53.0395 261.1710 0000967  90.0491 270.0635 15.67351383350010
STARLINK-1215           
1 45225U 20012AZ  26160.64631783  .00047612  00000+0  13664-2 0  9997
2 45225  53.1562 290.0453 0002117 289.0335  71.0439 15.35417424349574
STARLINK-1221           
1 45227U 20012BB  26160.72988407  .00011460  00000+0  24855-3 0  9993
2 45227  53.0634 192.4393 0002559 330.7706  29.3157 15.44905598350927
STARLINK-1222           
1 45228U 20012BC  26160.55833261  .00030781  00000+0  45212-3 0  9999
2 45228  53.0526 260.4687 0002474  13.5438 346.5638 15.55249146349898
STARLINK-1226           
1 45229U 20012BD  26160.59992155  .00060564  00000+0  12902-2 0  9993
2 45229  53.1570 286.1906 0002923 288.7429  71.3261 15.44377114349567
STARLINK-1227           
1 45230U 20012BE  26160.60964353  .00057648  00000+0  12247-2 0  9997
2 45230  53.1537 286.2507 0003080 276.0835  83.9821 15.44480267349684
STARLINK-1246           
1 45235U 20012BK  26160.75016873  .00042070  00000+0  12211-2 0  9997
2 45235  53.1561 330.5277 0002130 222.1013 137.9827 15.35118088349087
STARLINK-1270           
1 45237U 20012BM  26161.00004630  .00015767  00000+0  17641-3 0  9992
2 45237  53.0401 261.3711 0002917 310.2802 296.8265 15.62940415  5956
JCSAT-17                
1 45245U 20013A   26160.79658439 -.00000306  00000+0  00000+0 0  9990
2 45245   5.3923 356.7890 0002715  79.2543 244.9086  1.00271322 23159
