OBJECT_NAME,OBJECT_ID,EPOCH,MEAN_MOTION,ECCENTRICITY,INCLINATION,RA_OF_ASC_NODE,ARG_OF_PERICENTER,MEAN_ANOMALY,EPHEMERIS_TYPE,CLASSIFICATION_TYPE,NORAD_CAT_ID,ELEMENT_SET_NO,REV_AT_EPOCH,BSTAR,MEAN_MOTION_DOT,MEAN_MOTION_DDOT
ONEWEB-0053,2020-008AC,2026-06-09T15:23:19.107168,13.10373933,.00022166,87.8841,37.7873,74.7385,285.3987,0,U,45157,999,30692,.1601145E-2,.572E-5,0
ONEWEB-0054,2020-008AD,2026-06-09T16:13:28.895232,13.10370005,.00018705,87.8848,37.7626,83.0808,277.0532,0,U,45158,999,30704,-.14189401E-2,-.483E-5,0
ONEWEB-0056,2020-008AE,2026-06-09T17:22:40.282176,13.10374161,.00019267,87.8847,37.7468,89.8802,270.2546,0,U,45159,999,30720,.17928895E-2,.639E-5,0
ONEWEB-0057,2020-008AF,2026-06-09T15:56:57.869952,13.10368846,.00022373,87.8839,37.7712,74.2466,285.8907,0,U,45160,999,30736,.27051403E-3,.107E-5,0
ONEWEB-0058,2020-008AG,2026-06-09T15:37:51.566592,13.10370661,.0001582,87.8838,37.7803,79.5298,280.6007,0,U,45161,999,30743,.16884791E-2,.602E-5,0
ONEWEB-0059,2020-008AH,2026-06-09T15:33:04.884480,13.10372642,.00017004,87.8838,37.7798,75.2304,284.9011,0,U,45162,999,30733,.21730708E-2,.771E-5,0
ONEWEB-0062,2020-008AJ,2026-06-09T17:56:04.633440,13.10369200,.00013912,87.8845,37.7469,88.1040,272.0246,0,U,45163,999,30721,-.77172763E-3,-.257E-5,0
ONEWEB-0065,2020-008AK,2026-06-09T16:53:55.954176,13.10375432,.00021754,87.8848,37.7636,81.7396,278.3978,0,U,45164,999,30690,-.12024938E-3,-.29E-6,0
STARLINK-1143,2020-012B,2026-06-10T00:00:04.000320,15.90442972,.00089444,53.0332,229.7304,359.2120,23.1180,0,U,45179,999,602,.70897553E-3,.219871E-2,.2880158E-4
STARLINK-1202,2020-012F,2026-06-09T18:14:06.442656,15.34941263,.00016115,53.1577,330.6252,206.0501,154.0421,0,U,45183,999,34906,.1441969E-2,.49515E-3,0
STARLINK-1216,2020-012H,2026-06-09T17:43:28.363008,15.35216559,.00017851,53.1574,330.5773,205.5077,154.5838,0,U,45185,999,34900,.13518948E-2,.46793E-3,0
STARLINK-1225,2020-012K,2026-06-09T17:41:37.101408,15.35261673,.00017284,53.1598,331.0447,212.7163,147.3733,0,U,45187,999,34904,.16644145E-2,.57867E-3,0
STARLINK-1230,2020-012M,2026-06-09T17:57:41.695200,15.35093565,.00015652,53.1575,331.0660,216.5797,143.5099,0,U,45189,999,34627,.14079623E-2,.48569E-3,0
STARLINK-1234,2020-012N,2026-06-09T10:46:30.464544,15.74869786,.0004547,53.0364,232.3088,278.3686,81.6817,0,U,45190,999,35028,.42366903E-3,.63792E-3,0
STARLINK-1269,2020-012V,2026-06-09T17:51:02.808000,15.35161028,.00008501,53.1569,330.9350,134.9997,225.1075,0,U,45197,999,34902,.13413866E-2,.4634E-3,0
STARLINK-1154,2020-012W,2026-06-09T15:21:24.473376,15.63924898,.00021215,53.0417,285.9075,358.3360,1.7646,0,U,45198,999,34959,.42388289E-3,.40299E-3,0
STARLINK-1199,2020-012Z,2026-06-09T17:09:23.412384,15.35173316,.00017297,53.1569,315.3361,274.3098,85.7707,0,U,45201,999,34926,.14998367E-2,.51919E-3,0
STARLINK-1209,2020-012AE,2026-06-09T12:52:24.830400,15.65983062,.00070631,53.0374,246.6020,250.8970,109.1281,0,U,45206,999,34924,.47825684E-3,.49565E-3,0
STARLINK-1231,2020-012AL,2026-06-09T18:33:01.906272,15.27987351,.00026869,53.0373,310.4256,76.6761,283.4537,0,U,45212,999,34927,.15543826E-2,.42914E-3,0
STARLINK-1271,2020-012AR,2026-06-09T17:05:25.337184,15.35355286,.0001558,53.1574,315.4692,291.8483,68.2354,0,U,45217,999,34926,.8682714E-3,.29984E-3,0
STARLINK-1191,2020-012AW,2026-06-09T14:56:12.977952,15.39375122,.0002221,53.1556,288.8393,228.8515,131.2298,0,U,45222,999,34963,.1318058E-2,.52261E-3,0
STARLINK-1212,2020-012AX,2026-06-09T17:51:32.042304,15.67351383,.00009678,53.0395,261.1710,90.0491,270.0635,0,U,45223,999,35001,.4674187E-3,.51156E-3,0
STARLINK-1215,2020-012AZ,2026-06-09T15:30:41.860512,15.35417424,.00021175,53.1562,290.0453,289.0335,71.0439,0,U,45225,999,34957,.13664045E-2,.47612E-3,0
STARLINK-1221,2020-012BB,2026-06-09T17:31:01.983648,15.44905598,.00025597,53.0634,192.4393,330.7706,29.3157,0,U,45227,999,35092,.2485459E-3,.1146E-3,0
STARLINK-1222,2020-012BC,2026-06-09T13:23:59.937504,15.55249146,.00024742,53.0526,260.4687,13.5438,346.5638,0,U,45228,999,34989,.45211773E-3,.30781E-3,0
STARLINK-1226,2020-012BD,2026-06-09T14:23:53.221920,15.44377114,.0002923,53.1570,286.1906,288.7429,71.3261,0,U,45229,999,34956,.12902399E-2,.60564E-3,0
STARLINK-1227,2020-012BE,2026-06-09T14:37:53.200992,15.44480267,.00030807,53.1537,286.2507,276.0835,83.9821,0,U,45230,999,34968,.12247128E-2,.57648E-3,0
STARLINK-1246,2020-012BK,2026-06-09T18:00:14.578272,15.35118088,.00021302,53.1561,330.5277,222.1013,137.9827,0,U,45235,999,34908,.12210967E-2,.4207E-3,0
STARLINK-1270,2020-012BM,2026-06-10T00:00:04.000320,15.62940415,.00029178,53.0401,261.3711,310.2802,296.8265,0,U,45237,999,595,.17640864E-3,.15767E-3,0
JCSAT-17,2020-013A,2026-06-09T19:07:04.891296,1.00271322,.0002715,5.3923,356.7890,79.2543,244.9086,0,U,45245,999,2315,0,-.306E-5,0
